O3B FM10                
1 40348U 14083A   26066.01522592 -.00000026  00000+0  00000+0 0  9998
2 40348   0.0432 347.7636 0002685 356.5565  15.6666  5.00115262204785
O3B FM11                
1 40349U 14083B   26066.02794664 -.00000026  00000+0  00000+0 0  9991
2 40349   0.0568   0.4081 0003130 333.8888  25.6826  5.00115630204806
O3B FM12                
1 40350U 14083C   26062.45701119 -.00000028  00000+0  00000+0 0  9991
2 40350   0.0560 359.7796 0002643 337.6957  22.5061  5.00115945204637
O3B FM9                 
1 40351U 14083D   26065.88197959 -.00000026  00000+0  00000+0 0  9991
2 40351   0.0579   0.6785 0002732 343.7503  15.5577  5.00115924204958
ASTRA 2G                
1 40364U 14089A   26066.30024969  .00000148  00000+0  00000+0 0  9993
2 40364   0.0549 329.1569 0004218  61.9271 270.1902  1.00273869 40947
SES-9                   
1 41380U 16013A   26066.34003109 -.00000347  00000+0  00000+0 0  9990
2 41380   0.0407 310.1603 0001663  91.0303 354.5504  1.00272104 36412
SES-10                  
1 42432U 17017A   26066.37961633 -.00000274  00000+0  00000+0 0  9991
2 42432   0.0199  74.5890 0002457 280.6126 239.6379  1.00271531 32736
SES-15                  
1 42709U 17026A   26066.52336347  .00000058  00000+0  00000+0 0  9992
2 42709   0.0427 318.1999 0001016  33.8962 232.3748  1.00274261  6419
SES-11 (ECHOSTAR 105)   
1 42967U 17063A   26066.36850411 -.00000091  00000+0  00000+0 0  9992
2 42967   0.0280  64.9902 0002548 279.5374 208.2656  1.00268601 30709
SES-14                  
1 43175U 18012B   26066.29350282 -.00000280  00000+0  00000+0 0  9992
2 43175   0.0184  94.6496 0000835 269.3063 219.1933  1.00270422  6000
O3B FM15                
1 43231U 18024A   26066.14863402 -.00000026  00000+0  00000+0 0  9993
2 43231   0.0487   0.9511 0002685 341.2868  17.7477  5.00115721145929
O3B FM16                
1 43232U 18024B   26065.60133621 -.00000026  00000+0  00000+0 0  9997
2 43232   0.0450   2.8606 0002813 339.2368  17.8875  5.00115911145813
O3B FM14                
1 43233U 18024C   26066.24176247 -.00000026  00000+0  00000+0 0  9990
2 43233   0.0435   1.7993 0002845 344.8872  13.3011  5.00115698145849
O3B FM13                
1 43234U 18024D   26062.10991137 -.00000028  00000+0  00000+0 0  9997
2 43234   0.0485 331.6373 0004295 331.6147  56.6997  5.00115687145742
SES-12                  
1 43488U 18049A   26066.02828845 -.00000272  00000+0  00000+0 0  9996
2 43488   0.0180  84.2897 0001821 220.4205 325.1973  1.00270171 28394
O3B FM20                
1 44112U 19020A   26066.06789383 -.00000026  00000+0  00000+0 0  9995
2 44112   0.0518 359.7050 0002796 334.4568  25.8192  5.00115512126460
O3B FM19                
1 44113U 19020B   26065.89512278 -.00000026  00000+0  00000+0 0  9993
2 44113   0.0567 352.2118 0004311 343.7320  24.0309  5.00115814126323
